{"fetched_at":"2026-03-29T02:12:04Z","count":15717,"tles":[{"name":"ARKTIKA-M 2","line1":"1 58584U 23198A   26082.52027795  .00000173  00000+0  00000+0 0  9997","line2":"2 58584  63.2220 163.8934 6881218 267.7008  18.8555  2.00606565 16600","category":"Other"}]}